{"type":"FeatureCollection","totalFeatures":34,"features":[{"type":"Feature","id":"capital.1","geometry":{"type":"Point","coordinates":[116.38094329833984,39.923614501953125]},"geometry_name":"the_geom","properties":{"AREA":0,"PERIMETER":0,"RES1_4M_":1,"RES1_4M_ID":61,"GBCODE":31010,"NAME":"¡À¡À??","ADCODE93":110100,"ADCODE99":110100,"ADCLASS":1,"PINYIN":"Beijing"}},{"type":"Feature","id":"capital.2","geometry":{"type":"Point","coordinates":[117.20349884033203,39.13111877441406]},"geometry_name":"the_geom","properties":{"AREA":0,"PERIMETER":0,"RES1_4M_":2,"RES1_4M_ID":70,"GBCODE":31020,"NAME":"¨¬¨¬?¨°","ADCODE93":120100,"ADCODE99":120100,"ADCLASS":2,"PINYIN":"Tianjin"}},{"type":"Feature","id":"capital.3","geometry":{"type":"Point","coordinates":[114.48977661132812,38.045127868652344]},"geometry_name":"the_geom","properties":{"AREA":0,"PERIMETER":0,"RES1_4M_":3,"RES1_4M_ID":121,"GBCODE":31020,"NAME":"¨º¡¥?¨°¡Á¡¥","ADCODE93":130101,"ADCODE99":130101,"ADCLASS":2,"PINYIN":"Shijiazhuang"}},{"type":"Feature","id":"capital.4","geometry":{"type":"Point","coordinates":[112.56935119628906,37.87111282348633]},"geometry_name":"the_geom","properties":{"AREA":0,"PERIMETER":0,"RES1_4M_":4,"RES1_4M_ID":220,"GBCODE":31020,"NAME":"¨¬??-","ADCODE93":140101,"ADCODE99":140101,"ADCLASS":2,"PINYIN":"Taiyuan"}},{"type":"Feature","id":"capital.5","geometry":{"type":"Point","coordinates":[111.66329956054688,40.82094192504883]},"geometry_name":"the_geom","properties":{"AREA":0,"PERIMETER":0,"RES1_4M_":5,"RES1_4M_ID":322,"GBCODE":31020,"NAME":"o?o¨ªo?¨¬?","ADCODE93":150101,"ADCODE99":150101,"ADCLASS":2,"PINYIN":"Huhehaote"}},{"type":"Feature","id":"capital.6","geometry":{"type":"Point","coordinates":[123.41168212890625,41.79661560058594]},"geometry_name":"the_geom","properties":{"AREA":0,"PERIMETER":0,"RES1_4M_":6,"RES1_4M_ID":412,"GBCODE":31020,"NAME":"¨¦¨°??","ADCODE93":210101,"ADCODE99":210101,"ADCLASS":2,"PINYIN":"Shenyang"}},{"type":"Feature","id":"capital.7","geometry":{"type":"Point","coordinates":[125.3154296875,43.89256286621094]},"geometry_name":"the_geom","properties":{"AREA":0,"PERIMETER":0,"RES1_4M_":7,"RES1_4M_ID":465,"GBCODE":31020,"NAME":"3¡è¡äo","ADCODE93":220101,"ADCODE99":220101,"ADCLASS":2,"PINYIN":"Changchun"}},{"type":"Feature","id":"capital.8","geometry":{"type":"Point","coordinates":[126.64334106445312,45.741493225097656]},"geometry_name":"the_geom","properties":{"AREA":0,"PERIMETER":0,"RES1_4M_":8,"RES1_4M_ID":508,"GBCODE":31020,"NAME":"1t??¡À?","ADCODE93":230101,"ADCODE99":230101,"ADCLASS":2,"PINYIN":"Haerbin"}},{"type":"Feature","id":"capital.9","geometry":{"type":"Point","coordinates":[121.46926879882812,31.238176345825195]},"geometry_name":"the_geom","properties":{"AREA":0,"PERIMETER":0,"RES1_4M_":9,"RES1_4M_ID":584,"GBCODE":31020,"NAME":"¨¦?o¡ê","ADCODE93":310100,"ADCODE99":310100,"ADCLASS":2,"PINYIN":"Shanghai"}},{"type":"Feature","id":"capital.10","geometry":{"type":"Point","coordinates":[118.77278137207031,32.04761505126953]},"geometry_name":"the_geom","properties":{"AREA":0,"PERIMETER":0,"RES1_4M_":10,"RES1_4M_ID":594,"GBCODE":31020,"NAME":"????","ADCODE93":320101,"ADCODE99":320101,"ADCLASS":2,"PINYIN":"Nanjing"}},{"type":"Feature","id":"capital.11","geometry":{"type":"Point","coordinates":[120.15924835205078,30.265995025634766]},"geometry_name":"the_geom","properties":{"AREA":0,"PERIMETER":0,"RES1_4M_":11,"RES1_4M_ID":668,"GBCODE":31020,"NAME":"o??Y","ADCODE93":330101,"ADCODE99":330101,"ADCLASS":2,"PINYIN":"Hangzhou"}},{"type":"Feature","id":"capital.12","geometry":{"type":"Point","coordinates":[117.27570343017578,31.86325454711914]},"geometry_name":"the_geom","properties":{"AREA":0,"PERIMETER":0,"RES1_4M_":12,"RES1_4M_ID":741,"GBCODE":31020,"NAME":"o?¡¤¨º","ADCODE93":340101,"ADCODE99":340101,"ADCLASS":2,"PINYIN":"Hefei"}},{"type":"Feature","id":"capital.13","geometry":{"type":"Point","coordinates":[119.29781341552734,26.078590393066406]},"geometry_name":"the_geom","properties":{"AREA":0,"PERIMETER":0,"RES1_4M_":13,"RES1_4M_ID":823,"GBCODE":31020,"NAME":"?¡ê?Y","ADCODE93":350101,"ADCODE99":350101,"ADCLASS":2,"PINYIN":"Fuzhou"}},{"type":"Feature","id":"capital.14","geometry":{"type":"Point","coordinates":[115.89991760253906,28.67599105834961]},"geometry_name":"the_geom","properties":{"AREA":0,"PERIMETER":0,"RES1_4M_":14,"RES1_4M_ID":898,"GBCODE":31020,"NAME":"??2y","ADCODE93":360101,"ADCODE99":360101,"ADCLASS":2,"PINYIN":"Nanchang"}},{"type":"Feature","id":"capital.15","geometry":{"type":"Point","coordinates":[117.00559997558594,36.66707229614258]},"geometry_name":"the_geom","properties":{"AREA":0,"PERIMETER":0,"RES1_4M_":15,"RES1_4M_ID":981,"GBCODE":31020,"NAME":"????","ADCODE93":370101,"ADCODE99":370101,"ADCLASS":2,"PINYIN":"Jinan"}},{"type":"Feature","id":"capital.16","geometry":{"type":"Point","coordinates":[113.6500473022461,34.75703430175781]},"geometry_name":"the_geom","properties":{"AREA":0,"PERIMETER":0,"RES1_4M_":16,"RES1_4M_ID":1084,"GBCODE":31020,"NAME":"?¡ê?Y","ADCODE93":410101,"ADCODE99":410101,"ADCLASS":2,"PINYIN":"Zhengzhou"}},{"type":"Feature","id":"capital.17","geometry":{"type":"Point","coordinates":[114.29193878173828,30.567514419555664]},"geometry_name":"the_geom","properties":{"AREA":0,"PERIMETER":0,"RES1_4M_":17,"RES1_4M_ID":1207,"GBCODE":31020,"NAME":"??oo","ADCODE93":420101,"ADCODE99":420101,"ADCLASS":2,"PINYIN":"Wuhan"}},{"type":"Feature","id":"capital.18","geometry":{"type":"Point","coordinates":[112.98126983642578,28.200824737548828]},"geometry_name":"the_geom","properties":{"AREA":0,"PERIMETER":0,"RES1_4M_":18,"RES1_4M_ID":1344,"GBCODE":31020,"NAME":"3¡è¨¦3","ADCODE93":430101,"ADCODE99":430101,"ADCLASS":2,"PINYIN":"Changsha"}},{"type":"Feature","id":"capital.19","geometry":{"type":"Point","coordinates":[113.26142883300781,23.118911743164062]},"geometry_name":"the_geom","properties":{"AREA":0,"PERIMETER":0,"RES1_4M_":19,"RES1_4M_ID":1403,"GBCODE":31020,"NAME":"1??Y","ADCODE93":440101,"ADCODE99":440101,"ADCLASS":2,"PINYIN":"Guangzhou"}},{"type":"Feature","id":"capital.20","geometry":{"type":"Point","coordinates":[108.311767578125,22.806543350219727]},"geometry_name":"the_geom","properties":{"AREA":0,"PERIMETER":0,"RES1_4M_":20,"RES1_4M_ID":1509,"GBCODE":31020,"NAME":"???t","ADCODE93":450101,"ADCODE99":450101,"ADCLASS":2,"PINYIN":"Nanning"}},{"type":"Feature","id":"capital.21","geometry":{"type":"Point","coordinates":[110.34651184082031,20.03179359436035]},"geometry_name":"the_geom","properties":{"AREA":0,"PERIMETER":0,"RES1_4M_":21,"RES1_4M_ID":1580,"GBCODE":31020,"NAME":"o¡ê?¨²","ADCODE93":460100,"ADCODE99":460100,"ADCLASS":2,"PINYIN":"Haikou"}},{"type":"Feature","id":"capital.22","geometry":{"type":"Point","coordinates":[104.08175659179688,30.661056518554688]},"geometry_name":"the_geom","properties":{"AREA":0,"PERIMETER":0,"RES1_4M_":22,"RES1_4M_ID":1620,"GBCODE":31020,"NAME":"3¨¦??","ADCODE93":510101,"ADCODE99":510101,"ADCLASS":2,"PINYIN":"Chengdu"}},{"type":"Feature","id":"capital.23","geometry":{"type":"Point","coordinates":[106.51033782958984,29.558176040649414]},"geometry_name":"the_geom","properties":{"AREA":0,"PERIMETER":0,"RES1_4M_":23,"RES1_4M_ID":1622,"GBCODE":31030,"NAME":"???¨¬","ADCODE93":510201,"ADCODE99":500100,"ADCLASS":2,"PINYIN":"Chongqing"}},{"type":"Feature","id":"capital.24","geometry":{"type":"Point","coordinates":[106.71137237548828,26.576873779296875]},"geometry_name":"the_geom","properties":{"AREA":0,"PERIMETER":0,"RES1_4M_":24,"RES1_4M_ID":1838,"GBCODE":31020,"NAME":"1¨®??","ADCODE93":520101,"ADCODE99":520101,"ADCLASS":2,"PINYIN":"Guiyang"}},{"type":"Feature","id":"capital.25","geometry":{"type":"Point","coordinates":[102.7045669555664,25.04384422302246]},"geometry_name":"the_geom","properties":{"AREA":0,"PERIMETER":0,"RES1_4M_":25,"RES1_4M_ID":1852,"GBCODE":31020,"NAME":"¨¤£¤?¡Â","ADCODE93":530101,"ADCODE99":530101,"ADCLASS":2,"PINYIN":"Kunming"}},{"type":"Feature","id":"capital.26","geometry":{"type":"Point","coordinates":[91.13204956054688,29.657588958740234]},"geometry_name":"the_geom","properties":{"AREA":0,"PERIMETER":0,"RES1_4M_":26,"RES1_4M_ID":1972,"GBCODE":31020,"NAME":"¨¤-¨¨?","ADCODE93":540101,"ADCODE99":540101,"ADCLASS":2,"PINYIN":"Lhasa"}},{"type":"Feature","id":"capital.27","geometry":{"type":"Point","coordinates":[108.94902801513672,34.26168441772461]},"geometry_name":"the_geom","properties":{"AREA":0,"PERIMETER":0,"RES1_4M_":27,"RES1_4M_ID":2041,"GBCODE":31020,"NAME":"?¡Â¡ã2","ADCODE93":610101,"ADCODE99":610101,"ADCLASS":2,"PINYIN":"Xi'an"}},{"type":"Feature","id":"capital.28","geometry":{"type":"Point","coordinates":[103.75005340576172,36.06803894042969]},"geometry_name":"the_geom","properties":{"AREA":0,"PERIMETER":0,"RES1_4M_":28,"RES1_4M_ID":2134,"GBCODE":31020,"NAME":"¨¤??Y","ADCODE93":620101,"ADCODE99":620101,"ADCLASS":2,"PINYIN":"Lanzhou"}},{"type":"Feature","id":"capital.29","geometry":{"type":"Point","coordinates":[101.7874526977539,36.60944747924805]},"geometry_name":"the_geom","properties":{"AREA":0,"PERIMETER":0,"RES1_4M_":29,"RES1_4M_ID":2213,"GBCODE":31020,"NAME":"?¡Â?t","ADCODE93":630100,"ADCODE99":630100,"ADCLASS":2,"PINYIN":"Xining"}},{"type":"Feature","id":"capital.30","geometry":{"type":"Point","coordinates":[106.27194213867188,38.46800994873047]},"geometry_name":"the_geom","properties":{"AREA":0,"PERIMETER":0,"RES1_4M_":30,"RES1_4M_ID":2253,"GBCODE":31020,"NAME":"¨°?¡ä¡§","ADCODE93":640101,"ADCODE99":640101,"ADCLASS":2,"PINYIN":"Yinchuan"}},{"type":"Feature","id":"capital.31","geometry":{"type":"Point","coordinates":[87.60611724853516,43.79093933105469]},"geometry_name":"the_geom","properties":{"AREA":0,"PERIMETER":0,"RES1_4M_":31,"RES1_4M_ID":2274,"GBCODE":31020,"NAME":"?¨²?3????","ADCODE93":650101,"ADCODE99":650101,"ADCLASS":2,"PINYIN":"Wulumuqi"}},{"type":"Feature","id":"capital.32","geometry":{"type":"Point","coordinates":[121.5142822265625,25.04912757873535]},"geometry_name":"the_geom","properties":{"AREA":0,"PERIMETER":0,"RES1_4M_":32,"RES1_4M_ID":2358,"GBCODE":31020,"NAME":"¨¬¡§¡À¡À","ADCODE93":710001,"ADCODE99":710001,"ADCLASS":2,"PINYIN":"Taipei Shih"}},{"type":"Feature","id":"capital.33","geometry":{"type":"Point","coordinates":[113.55005645751953,22.200796127319336]},"geometry_name":"the_geom","properties":{"AREA":0,"PERIMETER":0,"RES1_4M_":33,"RES1_4M_ID":1384,"GBCODE":31030,"NAME":"¡ã???","ADCODE93":820000,"ADCODE99":820000,"ADCLASS":9,"PINYIN":"Macao"}},{"type":"Feature","id":"capital.34","geometry":{"type":"Point","coordinates":[114.15440368652344,22.280685424804688]},"geometry_name":"the_geom","properties":{"AREA":0,"PERIMETER":0,"RES1_4M_":34,"RES1_4M_ID":2377,"GBCODE":31030,"NAME":"????","ADCODE93":810000,"ADCODE99":810000,"ADCLASS":9,"PINYIN":"Hong Kong"}}],"crs":{"type":"name","properties":{"name":"urn:ogc:def:crs:EPSG::4326"}}}